satname,norad_id,inclination_deg,eccentricity,mean_motion_rev_per_day,perigee_km,apogee_km,l1,l2
STARLINK-1183,45088,53.0552,0.0001261,15.06403956,546.326148470328,548.0727183188301,1 45088U 20006AW  25336.23581084  .00002784  00000+0  20569-3 0  9998,2 45088  53.0552 324.1076 0001261  80.6680 279.4451 15.06403956322332
STARLINK-1142,45093,53.0272,0.0008486,15.79139135,327.18355896147114,338.5734945134509,1 45093U 20006BB  25336.91670139  .00343837  00000+0  18118-2 0  9992,2 45093  53.0272 239.7438 0008486 148.3583  48.5909 15.79139135  6001
STARLINK-1152,45096,53.0467,0.0004564,15.27143682,481.22385839025446,487.4879419095123,1 45096U 20006BE  25336.23413356  .00062183  00000+0  22986-2 0  9996,2 45096  53.0467 302.0334 0004564 356.0893   4.0069 15.27143682322644
STARLINK-1184,45098,53.056,0.000167,15.0640921,546.02680226334,548.3398592538133,1 45098U 20006BG  25336.18420507  .00002369  00000+0  17785-3 0  9990,2 45098  53.0560 324.3382 0001670  85.5594 274.5586 15.06409210322329
STARLINK-1193,45100,53.0558,0.0001358,15.06413699,546.2291161618823,548.1100294270536,1 45100U 20006BJ  25336.24686552  .00003392  00000+0  24641-3 0  9991,2 45100  53.0558 324.0558 0001358  85.8802 274.2342 15.06413699322334
STARLINK-1143,45179,53.0523,0.0004797,15.44688739,429.02584138201837,435.5597677365131,1 45179U 20012B   25336.58364587  .00027121  00000+0  57896-3 0  9996,2 45179  53.0523  77.9863 0004797 156.0436 204.0793 15.44688739320834
STARLINK-1202,45183,53.0559,0.0001405,15.06394644,546.2549595767532,548.200987134267,1 45183U 20012F   25336.70761537  .00000112  00000+0  26417-4 0  9998,2 45183  53.0559 121.9904 0001405  91.2753 268.8397 15.06394644320227
STARLINK-1216,45185,53.0542,0.0001189,15.06376211,546.4610361439018,548.1079013691724,1 45185U 20012H   25336.70026359 -.00002478  00000+0 -14765-3 0  9997,2 45185  53.0542 122.0180 0001189  83.7543 276.3581 15.06376211320163
STARLINK-1225,45187,53.0548,0.0001101,15.06393316,546.4695603796608,547.9945266430414,1 45187U 20012K   25336.71866926  .00000567  00000+0  56954-4 0  9994,2 45187  53.0548 121.9376 0001101  91.8666 268.2449 15.06393316320210
STARLINK-1230,45189,53.0566,0.0001271,15.06394621,546.3478299505423,548.1082577446887,1 45189U 20012M   25336.72235395  .00000616  00000+0  60253-4 0  9999,2 45189  53.0566 121.9255 0001271  93.5289 266.5846 15.06394621317449
STARLINK-1234,45190,53.0501,0.00048,15.41625341,438.0385880576787,444.58525902427846,1 45190U 20012N   25336.91670139  .00060252  00000+0  14075-2 0  9992,2 45190  53.0501  70.7067 0004800 317.6276 169.6405 15.41625341  5925
STARLINK-1269,45197,53.0531,0.0001315,15.06401392,546.2966088876938,548.1179744364008,1 45197U 20012V   25336.73340957  .00001961  00000+0  15050-3 0  9998,2 45197  53.0531 121.8724 0001315  87.4260 272.6879 15.06401392320194
STARLINK-1154,45198,53.0557,0.0001076,15.06382746,546.5192662731051,548.0096126628787,1 45198U 20012W   25336.65785377 -.00001342  00000+0 -71273-4 0  9994,2 45198  53.0557 102.2102 0001076  55.8455 304.2636 15.06382746320436
STARLINK-1199,45201,53.056,0.0001337,15.06391294,546.3123180332095,548.1641633725731,1 45201U 20012Z   25336.66891095 -.00000387  00000+0 -71142-5 0  9999,2 45201  53.0560 102.1640 0001337  91.4669 268.6473 15.06391294320490
STARLINK-1209,45206,53.0524,0.000504,15.35070947,457.262991940931,464.1565494858096,1 45206U 20012AE  25336.82366101  .00097878  00000+0  28089-2 0  9995,2 45206  53.0524  73.1880 0005040 322.9733  37.0920 15.35070947319963
STARLINK-1210,45207,53.0218,0.0003667,15.65143833,370.349551687601,375.30070731337764,1 45207U 20012AF  25336.91670139  .00082171  00000+0  81369-3 0  9996,2 45207  53.0218  28.2427 0003667 149.5478 272.9425 15.65143833  5920
STARLINK-1231,45212,53.0485,0.0005192,15.14509956,518.8838993892414,526.0494862638725,1 45212U 20012AL  25336.66880069  .00056834  00000+0  30416-2 0  9992,2 45212  53.0485  98.9313 0005192 139.9800 220.1576 15.14509956320497
STARLINK-1271,45217,53.0553,0.0001294,15.06391746,546.3407119981084,548.1329987518802,1 45217U 20012AR  25336.65416889 -.00000101  00000+0  12090-4 0  9998,2 45217  53.0553 102.2280 0001294  89.9131 270.2006 15.06391746320491
STARLINK-1191,45222,53.0546,0.0001349,15.06392899,546.2990891096597,548.1675540224178,1 45222U 20012AW  25336.59703383 -.00000335  00000+0 -36008-5 0  9991,2 45222  53.0546  82.4829 0001349  87.7022 272.4121 15.06392899320765
STARLINK-1212,45223,53.0555,0.0001344,15.06406064,546.262208365667,548.123737062333,1 45223U 20012AX  25336.61555330  .00001131  00000+0  94780-4 0  9995,2 45223  53.0555  83.0575 0001344  92.9591 267.1552 15.06406064320764
STARLINK-1215,45225,53.0555,0.0001304,15.06390997,546.336081923947,548.1422200241204,1 45225U 20012AZ  25336.57123316  .00000302  00000+0  39168-4 0  9995,2 45225  53.0555  82.6011 0001304  84.6586 275.4552 15.06390997320718
STARLINK-1221,45227,53.0691,0.0005129,15.38046541,448.38325220848856,455.38949018266067,1 45227U 20012BB  25336.36896911  .00018533  00000+0  49679-3 0  9994,2 45227  53.0691   9.4267 0005129  64.4888 295.6644 15.38046541321716
STARLINK-1222,45228,53.0559,6.45e-05,15.10963401,532.814818571137,533.706388862016,1 45228U 20012BC  25336.58647303  .00000181  00000+0  28121-4 0  9998,2 45228  53.0559  82.3411 0000645  64.8752 295.2305 15.10963401320658
STARLINK-1226,45229,53.0552,0.0001205,15.06391724,546.4024152447446,548.071430360139,1 45229U 20012BD  25336.56754378  .00000766  00000+0  70327-4 0  9992,2 45229  53.0552  82.6152 0001205  78.6495 281.4629 15.06391724320651
STARLINK-1227,45230,53.0565,0.0001172,15.06401198,546.3962358225872,548.0195366639236,1 45230U 20012BE  25336.56385817  .00000623  00000+0  60722-4 0  9992,2 45230  53.0565  82.6328 0001172  83.9988 276.1135 15.06401198320774
STARLINK-1246,45235,53.0539,0.0001324,15.06406421,546.2749650244514,548.1087921114959,1 45235U 20012BK  25336.64495873  .00001465  00000+0  11721-3 0  9999,2 45235  53.0539 122.2685 0001324  87.8417 272.2723 15.06406421320231
STARLINK-1270,45237,53.0547,0.0001395,15.06390376,546.2749640306338,548.2071445077745,1 45237U 20012BM  25336.78133360  .00000806  00000+0  73006-4 0  9999,2 45237  53.0547  81.6579 0001395  87.5519 272.5630 15.06390376320792
STARLINK-1279,45360,53.0505,0.0009366,15.39349312,441.63887990946114,454.4256601861134,1 45360U 20019A   25336.83927914  .00088400  00000+0  22110-2 0  9999,2 45360  53.0505 201.8992 0009366 115.8156 244.3815 15.39349312315679
STARLINK-1301,45361,53.0495,0.0008848,15.42126424,433.80207362907186,445.86715619882307,1 45361U 20019B   25336.81265832  .00084570  00000+0  19312-2 0  9996,2 45361  53.0495 211.1504 0008848 110.1335 250.0622 15.42126424315550
STARLINK-1306,45362,53.0395,0.0004432,15.82771152,319.6382239365057,325.57776429929254,1 45362U 20019C   25336.91670139  .00220682  00000+0  10005-2 0  9994,2 45362  53.0395 192.2358 0004432  86.0858 172.1078 15.82771152  5960
STARLINK-1262,45366,53.0537,0.0001518,15.06409429,546.1313960377156,548.2339230863599,1 45366U 20019G   25336.16209379  .00004764  00000+0  33840-3 0  9993,2 45366  53.0537 244.4318 0001518  93.6407 266.4756 15.06409429315037
STARLINK-1273,45367,53.055,0.0001681,15.06388894,546.0814396233845,548.4097532523074,1 45367U 20019H   25336.71499588 -.00000753  00000+0 -31670-4 0  9994,2 45367  53.0550 241.9510 0001681  77.4882 282.6295 15.06388894315116
STARLINK-1276,45368,53.0537,0.0001563,15.06416003,546.0800871686852,548.2449357959749,1 45368U 20019J   25336.15472271  .00011529  00000+0  79125-3 0  9990,2 45368  53.0537 244.4696 0001563  96.9235 263.1932 15.06416003315039
STARLINK-1277,45369,53.0536,0.0001328,15.06403442,546.2813238365434,548.1206936116614,1 45369U 20019K   25336.14743353  .00009318  00000+0  64357-3 0  9996,2 45369  53.0536 245.1270 0001328  87.6248 272.4893 15.06403442315026
STARLINK-1281,45370,53.0545,0.0001419,15.06397144,546.23760297831,548.2030193832234,1 45370U 20019L   25336.47540784  .00002583  00000+0  19224-3 0  9997,2 45370  53.0545 243.0321 0001419  85.9487 274.1664 15.06397144315081
STARLINK-1300,45374,53.056,0.0002404,15.06410165,545.5155575486069,548.8452501563797,1 45374U 20019Q   25336.16578569  .00009537  00000+0  65808-3 0  9994,2 45374  53.0560 244.4157 0002404  99.4737 260.6524 15.06410165315036
STARLINK-1302,45375,53.0548,0.0001454,15.06371675,546.291413041039,548.3053296470262,1 45375U 20019R   25336.44593029 -.00001278  00000+0 -66955-4 0  9995,2 45375  53.0548 243.1638 0001454 112.2447 247.8696 15.06371675315072
STARLINK-1304,45376,53.0544,0.0002076,15.0639712,545.7826805444738,548.658088930616,1 45376U 20019S   25336.46434139  .00003134  00000+0  22923-3 0  9991,2 45376  53.0544 243.0770 0002076 103.8427 256.2793 15.06397120315075
STARLINK-1305,45377,53.0522,0.0008291,15.35806257,452.85845973777214,464.1950155475315,1 45377U 20019T   25336.16722298  .00077185  00000+0  21705-2 0  9998,2 45377  53.0522 236.0775 0008291 104.1381 256.0543 15.35806257315155
STARLINK-1319,45379,53.0526,0.0006974,15.4075682,439.1167502936105,448.63209182370247,1 45379U 20019V   25336.80610264  .00085474  00000+0  20434-2 0  9998,2 45379  53.0526 234.4258 0006974 112.1015 248.0729 15.40756820315230
STARLINK-1266,45383,53.0544,0.0001681,15.06419395,545.9879745940898,548.3162567947866,1 45383U 20019Z   25336.08653128  .00008840  00000+0  61130-3 0  9990,2 45383  53.0544 224.7775 0001681  93.9005 266.2177 15.06419395315296
STARLINK-1267,45384,53.0539,0.0001647,15.0640536,546.0545281570985,548.3357325608386,1 45384U 20019AA  25336.40360234  .00002611  00000+0  19407-3 0  9990,2 45384  53.0539 224.0076 0001647  87.1514 272.9664 15.06405360315337
STARLINK-1272,45386,53.0512,0.0008969,15.38986952,442.98037316302634,455.22707757619537,1 45386U 20019AC  25336.82702933  .00080063  00000+0  20298-2 0  9990,2 45386  53.0512 212.5074 0008969 115.4659 244.7273 15.38986952315530
